[{"OBJECT_NAME":"KUIPER-00122","OBJECT_ID":"2025-228E","EPOCH":"2026-03-09T04:27:26.949312","MEAN_MOTION":14.79691168,"ECCENTRICITY":0.00011174,"INCLINATION":51.9018,"RA_OF_ASC_NODE":5.296,"ARG_OF_PERICENTER":77.3299,"MEAN_ANOMALY":282.7789,"EPHEMERIS_TYPE":0,"CLASSIFICATION_TYPE":"U","NORAD_CAT_ID":65951,"ELEMENT_SET_NO":999,"REV_AT_EPOCH":2312,"BSTAR":0.00094193825,"MEAN_MOTION_DOT":6.926e-5,"MEAN_MOTION_DDOT":0},{"OBJECT_NAME":"FENGYUN 1C DEB","OBJECT_ID":"1999-025CXF","EPOCH":"2026-03-07T13:12:42.532128","MEAN_MOTION":14.81371774,"ECCENTRICITY":0.0143567,"INCLINATION":98.862,"RA_OF_ASC_NODE":185.4298,"ARG_OF_PERICENTER":249.2966,"MEAN_ANOMALY":109.2805,"EPHEMERIS_TYPE":0,"CLASSIFICATION_TYPE":"U","NORAD_CAT_ID":32314,"ELEMENT_SET_NO":999,"REV_AT_EPOCH":98685,"BSTAR":0.0017862,"MEAN_MOTION_DOT":0.00016648,"MEAN_MOTION_DDOT":0}]
